$$SOE
2460721.500000000, A.D. 2025-Feb-15 00:00:00.0000, 6.553286282670265E+07, -3.397428769817483E+08, 6.893603662444004E+07,
2460728.500000000, A.D. 2025-Feb-22 00:00:00.0000, 7.701004123691800E+07, -3.353806362774508E+08, 6.994931517235169E+07,
2460735.500000000, A.D. 2025-Mar-01 00:00:00.0000, 8.840085776646931E+07, -3.306424732441624E+08, 7.088417044313657E+07,
2460742.500000000, A.D. 2025-Mar-08 00:00:00.0000, 9.969115565213171E+07, -3.255285013284757E+08, 7.173843968902439E+07,
2460749.500000000, A.D. 2025-Mar-15 00:00:00.0000, 1.108665422555296E+08, -3.200394317467904E+08, 7.251002748698480E+07,
2460756.500000000, A.D. 2025-Mar-22 00:00:00.0000, 1.219124141516111E+08, -3.141766005288605E+08, 7.319691495015517E+07,
2460763.500000000, A.D. 2025-Mar-29 00:00:00.0000, 1.328139865161738E+08, -3.079419966791027E+08, 7.379716888419595E+07,
2460770.500000000, A.D. 2025-Apr-05 00:00:00.0000, 1.435563271535122E+08, -3.013382880153699E+08, 7.430895106508422E+07,
2460777.500000000, A.D. 2025-Apr-12 00:00:00.0000, 1.541243932208554E+08, -2.943688442658921E+08, 7.473052776635854E+07,
2460784.500000000, A.D. 2025-Apr-19 00:00:00.0000, 1.645030704091673E+08, -2.870377579789101E+08, 7.506027941617252E+07,
2460791.500000000, A.D. 2025-Apr-26 00:00:00.0000, 1.746772147604578E+08, -2.793498631144595E+08, 7.529671027079095E+07,
2460798.500000000, A.D. 2025-May-03 00:00:00.0000, 1.846316971025995E+08, -2.713107509639778E+08, 7.543845801730001E+07,
2460805.500000000, A.D. 2025-May-10 00:00:00.0000, 1.943514499538448E+08, -2.629267830572779E+08, 7.548430321895459E+07,
2460812.500000000, A.D. 2025-May-17 00:00:00.0000, 2.038215167127323E+08, -2.542051007744312E+08, 7.543317850594687E+07,
2460819.500000000, A.D. 2025-May-24 00:00:00.0000, 2.130271030427661E+08, -2.451536314085734E+08, 7.528417739691913E+07,
2460826.500000000, A.D. 2025-May-31 00:00:00.0000, 2.219536305620388E+08, -2.357810900848649E+08, 7.503656264326875E+07,
2460833.500000000, A.D. 2025-Jun-07 00:00:00.0000, 2.305867920837514E+08, -2.260969760800126E+08, 7.468977413599201E+07,
2460840.500000000, A.D. 2025-Jun-14 00:00:00.0000, 2.389126056429654E+08, -2.161115639937280E+08, 7.424343643873957E+07,
2460847.500000000, A.D. 2025-Jun-21 00:00:00.0000, 2.469174680844855E+08, -2.058358928632454E+08, 7.369736546549356E+07,
2460854.500000000, A.D. 2025-Jun-28 00:00:00.0000, 2.545882108687463E+08, -1.952817513185721E+08, 7.305157405920643E+07,
2460861.500000000, A.D. 2025-Jul-05 00:00:00.0000, 2.619121560875095E+08, -1.844616565384566E+08, 7.230627669413306E+07,
2460868.500000000, A.D. 2025-Jul-12 00:00:00.0000, 2.688771709915905E+08, -1.733888277905191E+08, 7.146189326420754E+07,
2460875.500000000, A.D. 2025-Jul-19 00:00:00.0000, 2.754717207025457E+08, -1.620771551756738E+08, 7.051905182463770E+07,
2460882.500000000, A.D. 2025-Jul-26 00:00:00.0000, 2.816849187949042E+08, -1.505411637473032E+08, 6.947859020600815E+07,
2460889.500000000, A.D. 2025-Aug-02 00:00:00.0000, 2.875065752933740E+08, -1.387959731644319E+08, 6.834155645044810E+07,
2460896.500000000, A.D. 2025-Aug-09 00:00:00.0000, 2.929272416005451E+08, -1.268572531391083E+08, 6.710920803169303E+07,
2460903.500000000, A.D. 2025-Aug-16 00:00:00.0000, 2.979382519472390E+08, -1.147411750493774E+08, 6.578300982463488E+07,
2460910.500000000, A.D. 2025-Aug-23 00:00:00.0000, 3.025317612054194E+08, -1.024643600671897E+08, 6.436463079013012E+07,
2460917.500000000, A.D. 2025-Aug-30 00:00:00.0000, 3.067007789848236E+08, -9.004382350447524E+07, 6.285593941111024E+07,
2460924.500000000, A.D. 2025-Sep-06 00:00:00.0000, 3.104391982451982E+08, -7.749691484606721E+07, 6.125899811983962E+07,
2460931.500000000, A.D. 2025-Sep-13 00:00:00.0000, 3.137418164600052E+08, -6.484125646876168E+07, 5.957605670991518E+07,
2460938.500000000, A.D. 2025-Sep-20 00:00:00.0000, 3.166043523674061E+08, -5.209468323515257E+07, 5.780954435257703E+07,
2460945.500000000, A.D. 2025-Sep-27 00:00:00.0000, 3.190234592001953E+08, -3.927518041110887E+07, 5.596206044467874E+07,
2460952.500000000, A.D. 2025-Oct-04 00:00:00.0000, 3.209967322894779E+08, -2.640081994181255E+07, 5.403636460497032E+07,
2460959.500000000, A.D. 2025-Oct-11 00:00:00.0000, 3.225227106555863E+08, -1.348969660882870E+07, 5.203536587711388E+07,
2460966.500000000, A.D. 2025-Oct-18 00:00:00.0000, 3.236008729299462E+08, -5.598649164474271E+05, 4.996211120231196E+07,
2460973.500000000, A.D. 2025-Oct-25 00:00:00.0000, 3.242316278771460E+08, 1.237072274602895E+07, 4.781977326805337E+07,
2460980.500000000, A.D. 2025-Nov-01 00:00:00.0000, 3.244162997516919E+08, 2.528427615036855E+07, 4.561163785340748E+07,
2460987.500000000, A.D. 2025-Nov-08 00:00:00.0000, 3.241571087794489E+08, 3.816322495718475E+07, 4.334109079014053E+07,
2460994.500000000, A.D. 2025-Nov-15 00:00:00.0000, 3.234571472215924E+08, 5.099027361447638E+07, 4.101160464650286E+07,
2461001.500000000, A.D. 2025-Nov-22 00:00:00.0000, 3.223203517781633E+08, 6.374845324249572E+07, 3.862672523714359E+07,
2461008.500000000, A.D. 2025-Nov-29 00:00:00.0000, 3.207514725654736E+08, 7.642117129264776E+07, 3.619005818397792E+07,
2461015.500000000, A.D. 2025-Dec-06 00:00:00.0000, 3.187560368149240E+08, 8.899225856179681E+07, 3.370525584243870E+07,
2461022.500000000, A.D. 2025-Dec-13 00:00:00.0000, 3.163403081848642E+08, 1.014460099620181E+08, 3.117600438924968E+07,
2461029.500000000, A.D. 2025-Dec-20 00:00:00.0000, 3.135112456396832E+08, 1.137672198931434E+08, 2.860601093388295E+07,
2461036.500000000, A.D. 2025-Dec-27 00:00:00.0000, 3.102764612830958E+08, 1.259412146977695E+08, 2.599899105369156E+07,
2461043.500000000, A.D. 2026-Jan-03 00:00:00.0000, 3.066441761490584E+08, 1.379538815303174E+08, 2.335865691750119E+07,
2461050.500000000, A.D. 2026-Jan-10 00:00:00.0000, 3.026231745142882E+08, 1.497916929611902E+08, 2.068870600267907E+07,
2461057.500000000, A.D. 2026-Jan-17 00:00:00.0000, 2.982227574021423E+08, 1.614417272738567E+08, 1.799281043605269E+07,
2461064.500000000, A.D. 2026-Jan-24 00:00:00.0000, 2.934526957704127E+08, 1.728916845722241E+08, 1.527460700126665E+07,
2461071.500000000, A.D. 2026-Jan-31 00:00:00.0000, 2.883231837941538E+08, 1.841298988260058E+08, 1.253768784665537E+07,
2461078.500000000, A.D. 2026-Feb-07 00:00:00.0000, 2.828447926625491E+08, 1.951453459671808E+08, 9.785591909529120E+06,
2461085.500000000, A.D. 2026-Feb-14 00:00:00.0000, 2.770284254686034E+08, 2.059276482224682E+08, 7.021797048483029E+06,
2461092.500000000, A.D. 2026-Feb-21 00:00:00.0000, 2.708852738712983E+08, 2.164670754804707E+08, 4.249712901378453E+06,
2461099.500000000, A.D. 2026-Feb-28 00:00:00.0000, 2.644267756958891E+08, 2.267545450824146E+08, 1.472674659658402E+06,
2461106.500000000, A.D. 2026-Mar-07 00:00:00.0000, 2.576645716263225E+08, 2.367816183422593E+08, -1.306062220880046E+06,
2461113.500000000, A.D. 2026-Mar-14 00:00:00.0000, 2.506104639568079E+08, 2.465404917301579E+08, -4.083326834754825E+06,
2461120.500000000, A.D. 2026-Mar-21 00:00:00.0000, 2.432763793387208E+08, 2.560239858736250E+08, -6.856037118311539E+06,
2461127.500000000, A.D. 2026-Mar-28 00:00:00.0000, 2.356743336225143E+08, 2.652255336582508E+08, -9.621203378399074E+06,
2461134.500000000, A.D. 2026-Apr-04 00:00:00.0000, 2.278163982669072E+08, 2.741391667159673E+08, -1.237593111285102E+07,
2461141.500000000, A.D. 2026-Apr-11 00:00:00.0000, 2.197146686373159E+08, 2.827595001933018E+08, -1.511742321051033E+07,
2461148.500000000, A.D. 2026-Apr-18 00:00:00.0000, 2.113812343793224E+08, 2.910817160417432E+08, -1.784298158141537E+07,
2461155.500000000, A.D. 2026-Apr-25 00:00:00.0000, 2.028281519225387E+08, 2.991015450837336E+08, -2.055000825828958E+07,
2461162.500000000, A.D. 2026-May-02 00:00:00.0000, 1.940674191374943E+08, 3.068152480468970E+08, -2.323600601488338E+07,
2461169.500000000, A.D. 2026-May-09 00:00:00.0000, 1.851109522425563E+08, 3.142195957041100E+08, -2.589857855915610E+07,
2461176.500000000, A.D. 2026-May-16 00:00:00.0000, 1.759705652930874E+08, 3.213118484452772E+08, -2.853543036558875E+07,
2461183.500000000, A.D. 2026-May-23 00:00:00.0000, 1.666579522454455E+08, 3.280897364747082E+08, -3.114436610819322E+07,
2461190.500000000, A.D. 2026-May-30 00:00:00.0000, 1.571846694445486E+08, 3.345514411043291E+08, -3.372328951575652E+07,
2461197.500000000, A.D. 2026-Jun-06 00:00:00.0000, 1.475621181297352E+08, 3.406955740078254E+08, -3.627020192316367E+07,
2461204.500000000, A.D. 2026-Jun-13 00:00:00.0000, 1.378015305374838E+08, 3.465211547687911E+08, -3.878320087487663E+07,
2461211.500000000, A.D. 2026-Jun-20 00:00:00.0000, 1.279139590118402E+08, 3.520275897615059E+08, -4.126047853031443E+07,
2461218.500000000, A.D. 2026-Jun-27 00:00:00.0000, 1.179102663278188E+08, 3.572146521193026E+08, -4.370031977459273E+07,
2461225.500000000, A.D. 2026-Jul-04 00:00:00.0000, 1.078011171291479E+08, 3.620824621000376E+08, -4.610110012746990E+07,
2461232.500000000, A.D. 2026-Jul-11 00:00:00.0000, 9.759697063636452E+07, 3.666314677896822E+08, -4.846128351234366E+07,
2461239.500000000, A.D. 2026-Jul-18 00:00:00.0000, 8.730807462096669E+07, 3.708624262310035E+08, -5.077941991744745E+07,
2461246.500000000, A.D. 2026-Jul-25 00:00:00.0000, 7.694446057454747E+07, 3.747763850304372E+08, -5.305414297489560E+07,
2461253.500000000, A.D. 2026-Aug-01 00:00:00.0000, 6.651594002761719E+07, 3.783746644355506E+08, -5.528416748744449E+07,
2461260.500000000, A.D. 2026-Aug-08 00:00:00.0000, 5.603210214220044E+07, 3.816588398790306E+08, -5.746828694511464E+07,
2461267.500000000, A.D. 2026-Aug-15 00:00:00.0000, 4.550231290569236E+07, 3.846307254644298E+08, -5.960537105079912E+07,
2461274.500000000, A.D. 2026-Aug-22 00:00:00.0000, 3.493571508265517E+07, 3.872923596333885E+08, -6.169436310185409E+07,
2461281.500000000, A.D. 2026-Aug-29 00:00:00.0000, 2.434122655822776E+07, 3.896459916488955E+08, -6.373427714347392E+07,
2461288.500000000, A.D. 2026-Sep-05 00:00:00.0000, 1.372753912825994E+07, 3.916940660271260E+08, -6.572419533443752E+07,
$$EOE